{
    "links": {
        "self": "http://www.neowsapp.com/rest/v1/neo/3695418?api_key=iIulBulltgU6a56xZRHN4H3l9WmuAYTsLGpBGhQ2"
    },
    "id": "3695418",
    "neo_reference_id": "3695418",
    "name": "(2014 UG176)",
    "designation": "2014 UG176",
    "nasa_jpl_url": "http://ssd.jpl.nasa.gov/sbdb.cgi?sstr=3695418",
    "absolute_magnitude_h": 21.5,
    "estimated_diameter": {
        "kilometers": {
            "estimated_diameter_min": 0.1332155667,
            "estimated_diameter_max": 0.2978790628
        },
        "meters": {
            "estimated_diameter_min": 133.2155666981,
            "estimated_diameter_max": 297.8790627982
        },
        "miles": {
            "estimated_diameter_min": 0.0827762899,
            "estimated_diameter_max": 0.1850934111
        },
        "feet": {
            "estimated_diameter_min": 437.0589598459,
            "estimated_diameter_max": 977.2935443908
        }
    },
    "is_potentially_hazardous_asteroid": false,
    "close_approach_data": [
        {
            "close_approach_date": "2014-11-04",
            "close_approach_date_full": "2014-Nov-04 11:03",
            "epoch_date_close_approach": 1415098980000,
            "relative_velocity": {
                "kilometers_per_second": "21.2048599109",
                "kilometers_per_hour": "76337.495679334",
                "miles_per_hour": "47433.1511347506"
            },
            "miss_distance": {
                "astronomical": "0.2303061431",
                "lunar": "89.5890896659",
                "kilometers": "34453308.455675197",
                "miles": "21408293.1586118386"
            },
            "orbiting_body": "Earth"
        }
    ],
    "orbital_data": {
        "orbit_id": "3",
        "orbit_determination_date": "2017-04-06 08:37:41",
        "first_observation_date": "2014-10-25",
        "last_observation_date": "2014-10-31",
        "data_arc_in_days": 6,
        "observations_used": 16,
        "orbit_uncertainty": "9",
        "minimum_orbit_intersection": ".161011",
        "jupiter_tisserand_invariant": "2.864",
        "epoch_osculation": "2456960.5",
        "eccentricity": ".7156540297160873",
        "semi_major_axis": "2.753971288613832",
        "inclination": "16.37192327378125",
        "ascending_node_longitude": "87.83906105724479",
        "orbital_period": "1669.312091697747",
        "perihelion_distance": ".7830806381949375",
        "perihelion_argument": "15.41855269005706",
        "aphelion_distance": "4.724861939032726",
        "perihelion_time": "2456998.880976887083",
        "mean_anomaly": "351.7228469451165",
        "mean_motion": ".215657696239334",
        "equinox": "J2000",
        "orbit_class": {
            "orbit_class_type": "APO",
            "orbit_class_description": "Near-Earth asteroid orbits which cross the Earth’s orbit similar to that of 1862 Apollo",
            "orbit_class_range": "a (semi-major axis) > 1.0 AU; q (perihelion) < 1.017 AU"
        }
    },
    "is_sentry_object": false
}